#aV2010  5 26  0  0   .00000000      96 DD+AD WGS84 FIT  NGA
## 1585 259200.00000000   900.00000000 55342  .0000000000000
+   31     1  2  3  4  5  6  7  8  9 10 11 12 13 14 15 16 17
+         18 19 20 21 22 23 24 26 27 28 29 30 31 32  0  0  0
+          0  0  0  0  0  0  0  0  0  0  0  0  0  0  0  0  0
+          0  0  0  0  0  0  0  0  0  0  0  0  0  0  0  0  0
+          0  0  0  0  0  0  0  0  0  0  0  0  0  0  0  0  0
++         0  0  0  0  0  0  0  0  0  0  0  0  0  0  0  0  0
++         0  0  0  0  0  0  0  0  0  0  0  0  0  0  0  0  0
++         0  0  0  0  0  0  0  0  0  0  0  0  0  0  0  0  0
++         0  0  0  0  0  0  0  0  0  0  0  0  0  0  0  0  0
++         0  0  0  0  0  0  0  0  0  0  0  0  0  0  0  0  0
%c cc cc ccc ccc cccc cccc cccc cccc ccccc ccccc ccccc ccccc
%c cc cc ccc ccc cccc cccc cccc cccc ccccc ccccc ccccc ccccc
%f  0.0000000  0.000000000  0.00000000000  0.000000000000000
%f  0.0000000  0.000000000  0.00000000000  0.000000000000000
%i    0    0    0    0      0      0      0      0         0
%i    0    0    0    0      0      0      0      0         0
/*      NGA, ST. LOUIS,MO.                                  
/*   EPHEMERIS COMPUTED FROM  3 DAYS OF DATA                
/* CCCCCCCCCCCCCCCCCCCCCCCCCCCCCCCCCCCCCCCCCCCCCCCCCCCCCCCCC
/* CCCCCCCCCCCCCCCCCCCCCCCCCCCCCCCCCCCCCCCCCCCCCCCCCCCCCCCCC
*  2010  5 26  2 45   .00000000                                                 
P  1   9649.340998  12341.233546 -21595.572397   -123.836451                    
V  1 -25193.272870   9966.422576  -5447.391013      -.040475                    
P  2 -14477.180872  -7338.337387 -21102.929043    258.980117                    
V  2   4441.710778 -26394.258624   5679.951877       .033637                    
P  3  24030.880511   8360.994539   7842.169457    559.881474                    
V  3   6932.031634   8472.739322 -28583.882709       .048704                    
P  4  -7772.113128 -20342.763405 -15127.257332     89.983289                    
V  4   5836.271588 -18397.613777  22348.129086       .082664                    
P  5 -23970.508753    393.392714 -11543.501789     -4.275753                    
V  5  12820.854139  -7388.105243 -26830.823317      -.014345                    
P  6  23080.791446  12285.948194   5278.736848    628.671462                    
V  6   3170.180160   6591.941659 -30096.947525      -.117300                    
P  7   6336.759993 -25543.134047  -2839.169948      -.764097                    
V  7   1949.409043   3989.565425 -31836.917233      -.002907                    
P  8   -557.854375 -24448.761957   9651.025122      5.539607                    
V  8   4875.070834 -11585.364848 -29535.326259       .001731                    
P  9 -14024.049562  12584.959944  18157.444245      8.726273                    
V  9   1961.740754 -24107.936744  17743.843800       .021685                    
P 10 -18026.746947  -7497.382182 -18343.030724    -43.321028                    
V 10  21082.759519  -8836.041720 -16938.399783      -.007238                    
P 11  11999.411481 -16911.103500  16145.106196    -64.897568                    
V 11   4848.614422  21117.933273  18588.349599      -.024412                    
P 12 -22994.645095  12068.334110  -5118.412652   -111.261806                    
V 12  -7061.690958   -164.326674  31191.547104       .042217                    
P 13   4227.053129 -15277.144951 -21447.671785    304.048051                    
V 13  19808.441082  18090.557828  -9071.846750      -.004149                    
P 14  13859.780162  20832.869033   9239.335041     49.795193                    
V 14  -9639.772724  -6442.906743  29293.221333       .042928                    
P 15 -20749.441908  -1466.339143  16597.108304   -267.157516                    
V 15 -15267.277107 -14575.785853 -20272.575446       .061054                    
P 16  21042.410344   4170.437364 -15801.107308    -75.127031                    
V 16 -18417.280229   7954.284060 -22094.854902      -.037488                    
P 17 -13081.726553 -20860.704918  10330.431971    152.989648                    
V 17  11284.564891   6666.937908  27829.307170       .022738                    
P 18  -8361.123640  17272.830054  18474.413227     70.584958                    
V 18 -22481.082994   5759.995893 -16171.627420       .024053                    
P 19  20020.217378   2188.357795  17505.555711    -37.562173                    
V 19  14794.516544  16430.075040 -18703.412777      -.027405                    
P 20  21202.289352 -14344.973551  -7114.313761     55.583765                    
V 20   9514.190891   -261.778292  29491.700320      -.005680                    
P 21  -3482.151167  25949.492689   1609.255817    -62.659842                    
V 21  -4474.133402    912.747952 -31439.044421      -.026222                    
P 22   4688.000212  15135.973497  21477.878493    171.196910                    
V 22 -25565.587930   8660.180517   -618.304045      -.007806                    
P 23  12591.280124  -8922.446207 -21674.871327    369.482840                    
V 23  20846.311498  17782.716552   4483.913786      -.014211                    
P 24   3254.930307  23843.321855  11620.643479    290.582193                    
V 24  -5552.502511  13670.866257 -26448.637680       .032232                    
P 26 -16034.913630   3324.699254  20448.593702    -56.918346                    
V 26 -19312.233454 -18973.824177 -11336.564824      -.052994                    
P 27 -15071.522899   8346.587970  20852.853125    155.278084                    
V 27   2049.661051 -24876.811799  11985.454868       .033931                    
P 28  -1962.766242 -15287.760325  22084.719173    -15.288638                    
V 28  25634.076558  -8178.988715  -3741.548517       .010279                    
P 29  -4606.354508  15502.641798 -20981.958324    122.588102                    
V 29 -20654.135218 -17179.369852  -8081.716343       .028440                    
P 30 -14422.097218  17242.794034 -14501.520772    246.020138                    
V 30 -17193.777638   4978.234633  23720.061902       .033493                    
P 31   8293.141788  18601.796095 -16746.474755    -34.549429                    
V 31  -5275.665226  21104.312001  20748.110240       .020953                    
P 32  25472.955716  -6832.333441    383.293717     -1.198379                    
V 32    767.789198   3062.846151  31946.223286      -.084384                    
EOF
